CCSDS_OMM_VERS = 2.0
CREATION_DATE  = 
ORIGINATOR     = 

OBJECT_NAME    = AQUA
OBJECT_ID      = 2002-022A
CENTER_NAME    = EARTH
REF_FRAME      = TEME
TIME_SYSTEM    = UTC
MEAN_ELEMENT_THEORY = SGP/SGP4

EPOCH          = 2026-03-20T05:22:05.259072
MEAN_MOTION    = 14.62000159
ECCENTRICITY   = .00007857
INCLINATION    = 98.4194
RA_OF_ASC_NODE = 46.7819
ARG_OF_PERICENTER = 112.9270
MEAN_ANOMALY   = 304.5090

EPHEMERIS_TYPE = 0
CLASSIFICATION_TYPE = U
NORAD_CAT_ID   = 27424
ELEMENT_SET_NO = 999
REV_AT_EPOCH   = 27027
BSTAR          = .17064196E-3
MEAN_MOTION_DOT = .806E-5
MEAN_MOTION_DDOT = 0

CCSDS_OMM_VERS = 2.0
CREATION_DATE  = 
ORIGINATOR     = 

OBJECT_NAME    = CZ-4B R/B
OBJECT_ID      = 2002-024C
CENTER_NAME    = EARTH
REF_FRAME      = TEME
TIME_SYSTEM    = UTC
MEAN_ELEMENT_THEORY = SGP/SGP4

EPOCH          = 2026-03-20T02:39:06.984864
MEAN_MOTION    = 14.14549435
ECCENTRICITY   = .00499497
INCLINATION    = 98.8815
RA_OF_ASC_NODE = 132.4636
ARG_OF_PERICENTER = 354.6777
MEAN_ANOMALY   = 34.4127

EPHEMERIS_TYPE = 0
CLASSIFICATION_TYPE = U
NORAD_CAT_ID   = 27432
ELEMENT_SET_NO = 999
REV_AT_EPOCH   = 23071
BSTAR          = .41399201E-4
MEAN_MOTION_DOT = .36E-6
MEAN_MOTION_DDOT = 0

CCSDS_OMM_VERS = 2.0
CREATION_DATE  = 
ORIGINATOR     = 

OBJECT_NAME    = MIDORI II (ADEOS-II)
OBJECT_ID      = 2002-056A
CENTER_NAME    = EARTH
REF_FRAME      = TEME
TIME_SYSTEM    = UTC
MEAN_ELEMENT_THEORY = SGP/SGP4

EPOCH          = 2026-03-19T21:13:28.767936
MEAN_MOTION    = 14.29292603
ECCENTRICITY   = .000117
INCLINATION    = 98.7787
RA_OF_ASC_NODE = 37.4335
ARG_OF_PERICENTER = 29.4228
MEAN_ANOMALY   = 330.7019

EPHEMERIS_TYPE = 0
CLASSIFICATION_TYPE = U
NORAD_CAT_ID   = 27597
ELEMENT_SET_NO = 999
REV_AT_EPOCH   = 21175
BSTAR          = .11924E-3
MEAN_MOTION_DOT = .258E-5
MEAN_MOTION_DDOT = 0

CCSDS_OMM_VERS = 2.0
CREATION_DATE  = 
ORIGINATOR     = 

OBJECT_NAME    = H-2A R/B
OBJECT_ID      = 2002-056E
CENTER_NAME    = EARTH
REF_FRAME      = TEME
TIME_SYSTEM    = UTC
MEAN_ELEMENT_THEORY = SGP/SGP4

EPOCH          = 2026-03-19T23:06:25.742016
MEAN_MOTION    = 14.33767222
ECCENTRICITY   = .00710625
INCLINATION    = 98.3221
RA_OF_ASC_NODE = 38.9384
ARG_OF_PERICENTER = 130.3223
MEAN_ANOMALY   = 274.3677

EPHEMERIS_TYPE = 0
CLASSIFICATION_TYPE = U
NORAD_CAT_ID   = 27601
ELEMENT_SET_NO = 999
REV_AT_EPOCH   = 21558
BSTAR          = .94988314E-4
MEAN_MOTION_DOT = .23E-5
MEAN_MOTION_DDOT = 0

CCSDS_OMM_VERS = 2.0
CREATION_DATE  = 
ORIGINATOR     = 

OBJECT_NAME    = CZ-4B R/B
OBJECT_ID      = 2003-049C
CENTER_NAME    = EARTH
REF_FRAME      = TEME
TIME_SYSTEM    = UTC
MEAN_ELEMENT_THEORY = SGP/SGP4

EPOCH          = 2026-03-20T05:58:17.672160
MEAN_MOTION    = 14.55029392
ECCENTRICITY   = .004776
INCLINATION    = 98.6889
RA_OF_ASC_NODE = 74.5687
ARG_OF_PERICENTER = 198.1942
MEAN_ANOMALY   = 161.7547

EPHEMERIS_TYPE = 0
CLASSIFICATION_TYPE = U
NORAD_CAT_ID   = 28059
ELEMENT_SET_NO = 999
REV_AT_EPOCH   = 18813
BSTAR          = .78376525E-4
MEAN_MOTION_DOT = .291E-5
MEAN_MOTION_DDOT = 0

CCSDS_OMM_VERS = 2.0
CREATION_DATE  = 
ORIGINATOR     = 

OBJECT_NAME    = CZ-2C R/B
OBJECT_ID      = 2004-012C
CENTER_NAME    = EARTH
REF_FRAME      = TEME
TIME_SYSTEM    = UTC
MEAN_ELEMENT_THEORY = SGP/SGP4

EPOCH          = 2026-03-20T03:47:51.059904
MEAN_MOTION    = 15.65689873
ECCENTRICITY   = .0012937
INCLINATION    = 97.7200
RA_OF_ASC_NODE = 145.4513
ARG_OF_PERICENTER = 266.6030
MEAN_ANOMALY   = 93.3749

EPHEMERIS_TYPE = 0
CLASSIFICATION_TYPE = U
NORAD_CAT_ID   = 28222
ELEMENT_SET_NO = 999
REV_AT_EPOCH   = 20591
BSTAR          = .41046893E-3
MEAN_MOTION_DOT = .41551E-3
MEAN_MOTION_DDOT = 0

CCSDS_OMM_VERS = 2.0
CREATION_DATE  = 
ORIGINATOR     = 

OBJECT_NAME    = SL-16 R/B
OBJECT_ID      = 2004-021B
CENTER_NAME    = EARTH
REF_FRAME      = TEME
TIME_SYSTEM    = UTC
MEAN_ELEMENT_THEORY = SGP/SGP4

EPOCH          = 2026-03-19T18:44:43.230624
MEAN_MOTION    = 14.14593755
ECCENTRICITY   = .00045542
INCLINATION    = 70.9997
RA_OF_ASC_NODE = 211.3144
ARG_OF_PERICENTER = 357.0332
MEAN_ANOMALY   = 3.0762

EPHEMERIS_TYPE = 0
CLASSIFICATION_TYPE = U
NORAD_CAT_ID   = 28353
ELEMENT_SET_NO = 999
REV_AT_EPOCH   = 12426
BSTAR          = -.81509152E-4
MEAN_MOTION_DOT = -.204E-5
MEAN_MOTION_DDOT = 0

CCSDS_OMM_VERS = 2.0
CREATION_DATE  = 
ORIGINATOR     = 

OBJECT_NAME    = CZ-4B R/B
OBJECT_ID      = 2004-035C
CENTER_NAME    = EARTH
REF_FRAME      = TEME
TIME_SYSTEM    = UTC
MEAN_ELEMENT_THEORY = SGP/SGP4

EPOCH          = 2026-03-20T01:14:55.310784
MEAN_MOTION    = 15.29233109
ECCENTRICITY   = .00301353
INCLINATION    = 97.3475
RA_OF_ASC_NODE = 113.1704
ARG_OF_PERICENTER = 293.0003
MEAN_ANOMALY   = 66.8059

EPHEMERIS_TYPE = 0
CLASSIFICATION_TYPE = U
NORAD_CAT_ID   = 28415
ELEMENT_SET_NO = 999
REV_AT_EPOCH   = 18149
BSTAR          = .23916715E-3
MEAN_MOTION_DOT = .6798E-4
MEAN_MOTION_DDOT = 0

CCSDS_OMM_VERS = 2.0
CREATION_DATE  = 
ORIGINATOR     = 

OBJECT_NAME    = CZ-2C R/B
OBJECT_ID      = 2004-046B
CENTER_NAME    = EARTH
REF_FRAME      = TEME
TIME_SYSTEM    = UTC
MEAN_ELEMENT_THEORY = SGP/SGP4

EPOCH          = 2026-03-20T06:48:43.490880
MEAN_MOTION    = 14.26995542
ECCENTRICITY   = .01403829
INCLINATION    = 98.1980
RA_OF_ASC_NODE = 353.6081
ARG_OF_PERICENTER = 123.2788
MEAN_ANOMALY   = 238.1933

EPHEMERIS_TYPE = 0
CLASSIFICATION_TYPE = U
NORAD_CAT_ID   = 28480
ELEMENT_SET_NO = 999
REV_AT_EPOCH   = 11001
BSTAR          = .56537071E-4
MEAN_MOTION_DOT = .113E-5
MEAN_MOTION_DDOT = 0

CCSDS_OMM_VERS = 2.0
CREATION_DATE  = 
ORIGINATOR     = 

OBJECT_NAME    = ARIANE 5 R/B
OBJECT_ID      = 2004-049H
CENTER_NAME    = EARTH
REF_FRAME      = TEME
TIME_SYSTEM    = UTC
MEAN_ELEMENT_THEORY = SGP/SGP4

EPOCH          = 2026-03-20T05:01:32.642976
MEAN_MOTION    = 14.85283827
ECCENTRICITY   = .00832501
INCLINATION    = 98.2641
RA_OF_ASC_NODE = 248.0613
ARG_OF_PERICENTER = 317.6142
MEAN_ANOMALY   = 41.8660

EPHEMERIS_TYPE = 0
CLASSIFICATION_TYPE = U
NORAD_CAT_ID   = 28499
ELEMENT_SET_NO = 999
REV_AT_EPOCH   = 14735
BSTAR          = .75241377E-4
MEAN_MOTION_DOT = .621E-5
MEAN_MOTION_DDOT = 0

CCSDS_OMM_VERS = 2.0
CREATION_DATE  = 
ORIGINATOR     = 

OBJECT_NAME    = CZ-2D R/B
OBJECT_ID      = 2005-024B
CENTER_NAME    = EARTH
REF_FRAME      = TEME
TIME_SYSTEM    = UTC
MEAN_ELEMENT_THEORY = SGP/SGP4

EPOCH          = 2026-03-20T06:56:07.828800
MEAN_MOTION    = 15.61045673
ECCENTRICITY   = .00039829
INCLINATION    = 97.3582
RA_OF_ASC_NODE = 94.8309
ARG_OF_PERICENTER = 16.3856
MEAN_ANOMALY   = 343.7530

EPHEMERIS_TYPE = 0
CLASSIFICATION_TYPE = U
NORAD_CAT_ID   = 28738
ELEMENT_SET_NO = 999
REV_AT_EPOCH   = 14143
BSTAR          = .35449607E-3
MEAN_MOTION_DOT = .29756E-3
MEAN_MOTION_DDOT = 0

CCSDS_OMM_VERS = 2.0
CREATION_DATE  = 
ORIGINATOR     = 

OBJECT_NAME    = ALOS (DAICHI)
OBJECT_ID      = 2006-002A
CENTER_NAME    = EARTH
REF_FRAME      = TEME
TIME_SYSTEM    = UTC
MEAN_ELEMENT_THEORY = SGP/SGP4

EPOCH          = 2026-03-19T20:24:42.663456
MEAN_MOTION    = 14.69840946
ECCENTRICITY   = .00007137
INCLINATION    = 98.1237
RA_OF_ASC_NODE = 34.7562
ARG_OF_PERICENTER = 82.4376
MEAN_ANOMALY   = 277.6911

EPHEMERIS_TYPE = 0
CLASSIFICATION_TYPE = U
NORAD_CAT_ID   = 28931
ELEMENT_SET_NO = 999
REV_AT_EPOCH   = 7497
BSTAR          = .20642889E-3
MEAN_MOTION_DOT = .1184E-4
MEAN_MOTION_DDOT = 0

