AQUA                    
1 27424U 02022A   26079.22367198  .00000806  00000+0  17064-3 0  9991
2 27424  98.4194  46.7819 0000785 112.9270 304.5090 14.62000159270270
CZ-4B R/B               
1 27432U 02024C   26079.11049751  .00000036  00000+0  41399-4 0  9996
2 27432  98.8815 132.4636 0049949 354.6777  34.4127 14.14549435230712
MIDORI II (ADEOS-II)    
1 27597U 02056A   26078.88436074  .00000258  00000+0  11924-3 0  9990
2 27597  98.7787  37.4335 0001170  29.4228 330.7019 14.29292603211756
H-2A R/B                
1 27601U 02056E   26078.96279794  .00000230  00000+0  94988-4 0  9991
2 27601  98.3221  38.9384 0071062 130.3223 274.3677 14.33767222215582
CZ-4B R/B               
1 28059U 03049C   26079.24881565  .00000291  00000+0  78377-4 0  9990
2 28059  98.6889  74.5687 0047760 198.1942 161.7547 14.55029392188131
CZ-2C R/B               
1 28222U 04012C   26079.15822986  .00041551  00000+0  41047-3 0  9992
2 28222  97.7200 145.4513 0012937 266.6030  93.3749 15.65689873205911
SL-16 R/B               
1 28353U 04021B   26078.78105591 -.00000204  00000+0 -81509-4 0  9991
2 28353  70.9997 211.3144 0004554 357.0332   3.0762 14.14593755124268
CZ-4B R/B               
1 28415U 04035C   26079.05202906  .00006798  00000+0  23917-3 0  9994
2 28415  97.3475 113.1704 0030135 293.0003  66.8059 15.29233109181495
CZ-2C R/B               
1 28480U 04046B   26079.28383670  .00000113  00000+0  56537-4 0  9991
2 28480  98.1980 353.6081 0140382 123.2788 238.1933 14.26995542110013
ARIANE 5 R/B            
1 28499U 04049H   26079.20940559  .00000621  00000+0  75241-4 0  9998
2 28499  98.2641 248.0613 0083250 317.6142  41.8660 14.85283827147353
CZ-2D R/B               
1 28738U 05024B   26079.28897950  .00029756  00000+0  35450-3 0  9999
2 28738  97.3582  94.8309 0003982  16.3856 343.7530 15.61045673141434
ALOS (DAICHI)           
1 28931U 06002A   26078.85049379  .00001184  00000+0  20643-3 0  9990
2 28931  98.1237  34.7562 0000713  82.4376 277.6911 14.69840946 74974
